[
  {
    "OBJECT_NAME": "STARLINK-2086",
    "OBJECT_ID": "21005X",
    "EPOCH": "2025-11-11T08:00:03.000384",
    "MEAN_MOTION": 15.62143746,
    "ECCENTRICITY": 0.0014581,
    "INCLINATION": 53.0452,
    "RA_OF_ASC_NODE": 161.1835,
    "ARG_OF_PERICENTER": 117.0391,
    "MEAN_ANOMALY": 146.611,
    "EPHEMERIS_TYPE": 0,
    "CLASSIFICATION_TYPE": "U",
    "NORAD_CAT_ID": 47370,
    "ELEMENT_SET_NO": 999,
    "REV_AT_EPOCH": 594,
    "BSTAR": 0.0022142999999999998,
    "MEAN_MOTION_DOT": 0.00203415,
    "MEAN_MOTION_DDOT": 0.0,
    "TLE_LINE1": "1 47370U 21005X   25315.33336806  .00203415  00000+0  22143-2 0  9995",
    "TLE_LINE2": "2 47370  53.0452 161.1835 0014581 117.0391 146.6110 15.62143746  5944",
    "COMMENT": "Grouped by shell and plane from TLE"
  },
  {
    "OBJECT_NAME": "STARLINK-11285 [DTC]",
    "OBJECT_ID": "24187E",
    "EPOCH": "2025-11-10T13:37:50.706336",
    "MEAN_MOTION": 15.6971871,
    "ECCENTRICITY": 0.0001766,
    "INCLINATION": 53.1569,
    "RA_OF_ASC_NODE": 163.2788,
    "ARG_OF_PERICENTER": 132.5968,
    "MEAN_ANOMALY": 227.5199,
    "EPHEMERIS_TYPE": 0,
    "CLASSIFICATION_TYPE": "U",
    "NORAD_CAT_ID": 61578,
    "ELEMENT_SET_NO": 999,
    "REV_AT_EPOCH": 6199,
    "BSTAR": 4.455200000000001e-06,
    "MEAN_MOTION_DOT": -5e-07,
    "MEAN_MOTION_DDOT": 0.0,
    "TLE_LINE1": "1 61578U 24187E   25314.56794799 -.00000050  00000+0  44552-5 0  9990",
    "TLE_LINE2": "2 61578  53.1569 163.2788 0001766 132.5968 227.5199 15.69718710 61992",
    "COMMENT": "Grouped by shell and plane from TLE"
  },
  {
    "OBJECT_NAME": "STARLINK-11275 [DTC]",
    "OBJECT_ID": "24187F",
    "EPOCH": "2025-11-11T00:12:34.246080",
    "MEAN_MOTION": 15.69721243,
    "ECCENTRICITY": 9.81e-05,
    "INCLINATION": 53.1561,
    "RA_OF_ASC_NODE": 161.0487,
    "ARG_OF_PERICENTER": 110.2094,
    "MEAN_ANOMALY": 249.903,
    "EPHEMERIS_TYPE": 0,
    "CLASSIFICATION_TYPE": "U",
    "NORAD_CAT_ID": 61579,
    "ELEMENT_SET_NO": 999,
    "REV_AT_EPOCH": 6206,
    "BSTAR": 8.414199999999999e-07,
    "MEAN_MOTION_DOT": -4.87e-06,
    "MEAN_MOTION_DDOT": 0.0,
    "TLE_LINE1": "1 61579U 24187F   25315.00872970 -.00000487  00000+0  84142-6 0  9993",
    "TLE_LINE2": "2 61579  53.1561 161.0487 0000981 110.2094 249.9030 15.69721243 62064",
    "COMMENT": "Grouped by shell and plane from TLE"
  },
  {
    "OBJECT_NAME": "STARLINK-11342 [DTC]",
    "OBJECT_ID": "24187G",
    "EPOCH": "2025-11-11T00:05:30.846336",
    "MEAN_MOTION": 15.6967438,
    "ECCENTRICITY": 0.0001309,
    "INCLINATION": 53.1591,
    "RA_OF_ASC_NODE": 161.0165,
    "ARG_OF_PERICENTER": 131.1782,
    "MEAN_ANOMALY": 228.9349,
    "EPHEMERIS_TYPE": 0,
    "CLASSIFICATION_TYPE": "U",
    "NORAD_CAT_ID": 61580,
    "ELEMENT_SET_NO": 999,
    "REV_AT_EPOCH": 6216,
    "BSTAR": 8.3811e-05,
    "MEAN_MOTION_DOT": 9.562e-05,
    "MEAN_MOTION_DDOT": 0.0,
    "TLE_LINE1": "1 61580U 24187G   25315.00382924  .00009562  00000+0  83811-4 0  9992",
    "TLE_LINE2": "2 61580  53.1591 161.0165 0001309 131.1782 228.9349 15.69674380 62163",
    "COMMENT": "Grouped by shell and plane from TLE"
  },
  {
    "OBJECT_NAME": "STARLINK-11374 [DTC]",
    "OBJECT_ID": "24187H",
    "EPOCH": "2025-11-10T23:58:35.499936",
    "MEAN_MOTION": 15.69705331,
    "ECCENTRICITY": 9.28e-05,
    "INCLINATION": 53.1591,
    "RA_OF_ASC_NODE": 161.7189,
    "ARG_OF_PERICENTER": 85.0745,
    "MEAN_ANOMALY": 275.0379,
    "EPHEMERIS_TYPE": 0,
    "CLASSIFICATION_TYPE": "U",
    "NORAD_CAT_ID": 61581,
    "ELEMENT_SET_NO": 999,
    "REV_AT_EPOCH": 6215,
    "BSTAR": 2.1999e-05,
    "MEAN_MOTION_DOT": 2.077e-05,
    "MEAN_MOTION_DDOT": 0.0,
    "TLE_LINE1": "1 61581U 24187H   25314.99902199  .00002077  00000+0  21999-4 0  9995",
    "TLE_LINE2": "2 61581  53.1591 161.7189 0000928  85.0745 275.0379 15.69705331 62155",
    "COMMENT": "Grouped by shell and plane from TLE"
  },
  {
    "OBJECT_NAME": "STARLINK-11373 [DTC]",
    "OBJECT_ID": "24187J",
    "EPOCH": "2025-11-10T23:51:31.791744",
    "MEAN_MOTION": 15.69705968,
    "ECCENTRICITY": 3.58e-05,
    "INCLINATION": 53.158,
    "RA_OF_ASC_NODE": 161.6875,
    "ARG_OF_PERICENTER": 107.9621,
    "MEAN_ANOMALY": 252.1436,
    "EPHEMERIS_TYPE": 0,
    "CLASSIFICATION_TYPE": "U",
    "NORAD_CAT_ID": 61582,
    "ELEMENT_SET_NO": 999,
    "REV_AT_EPOCH": 6210,
    "BSTAR": 1.6387e-05,
    "MEAN_MOTION_DOT": 1.398e-05,
    "MEAN_MOTION_DDOT": 0.0,
    "TLE_LINE1": "1 61582U 24187J   25314.99411796  .00001398  00000+0  16387-4 0  9994",
    "TLE_LINE2": "2 61582  53.1580 161.6875 0000358 107.9621 252.1436 15.69705968 62100",
    "COMMENT": "Grouped by shell and plane from TLE"
  },
  {
    "OBJECT_NAME": "STARLINK-11368 [DTC]",
    "OBJECT_ID": "24187K",
    "EPOCH": "2025-11-10T23:44:27.502944",
    "MEAN_MOTION": 15.6971843,
    "ECCENTRICITY": 9.59e-05,
    "INCLINATION": 53.1578,
    "RA_OF_ASC_NODE": 161.653,
    "ARG_OF_PERICENTER": 82.0724,
    "MEAN_ANOMALY": 278.0403,
    "EPHEMERIS_TYPE": 0,
    "CLASSIFICATION_TYPE": "U",
    "NORAD_CAT_ID": 61583,
    "ELEMENT_SET_NO": 999,
    "REV_AT_EPOCH": 6205,
    "BSTAR": 4.7978e-06,
    "MEAN_MOTION_DOT": -7e-08,
    "MEAN_MOTION_DDOT": 0.0,
    "TLE_LINE1": "1 61583U 24187K   25314.98920721 -.00000007  00000+0  47978-5 0  9995",
    "TLE_LINE2": "2 61583  53.1578 161.6530 0000959  82.0724 278.0403 15.69718430 62053",
    "COMMENT": "Grouped by shell and plane from TLE"
  },
  {
    "OBJECT_NAME": "STARLINK-11370 [DTC]",
    "OBJECT_ID": "24187L",
    "EPOCH": "2025-11-10T22:05:41.172288",
    "MEAN_MOTION": 15.69741965,
    "ECCENTRICITY": 3.82e-05,
    "INCLINATION": 53.1602,
    "RA_OF_ASC_NODE": 161.9341,
    "ARG_OF_PERICENTER": 330.616,
    "MEAN_ANOMALY": 29.4836,
    "EPHEMERIS_TYPE": 0,
    "CLASSIFICATION_TYPE": "U",
    "NORAD_CAT_ID": 61584,
    "ELEMENT_SET_NO": 999,
    "REV_AT_EPOCH": 6209,
    "BSTAR": 2.6625e-05,
    "MEAN_MOTION_DOT": 2.643e-05,
    "MEAN_MOTION_DDOT": 0.0,
    "TLE_LINE1": "1 61584U 24187L   25314.92061542  .00002643  00000+0  26625-4 0  9999",
    "TLE_LINE2": "2 61584  53.1602 161.9341 0000382 330.6160  29.4836 15.69741965 62092",
    "COMMENT": "Grouped by shell and plane from TLE"
  },
  {
    "OBJECT_NAME": "STARLINK-11361 [DTC]",
    "OBJECT_ID": "24187M",
    "EPOCH": "2025-11-10T23:30:19.953504",
    "MEAN_MOTION": 15.6977184,
    "ECCENTRICITY": 5.31e-05,
    "INCLINATION": 53.1578,
    "RA_OF_ASC_NODE": 161.5872,
    "ARG_OF_PERICENTER": 62.3661,
    "MEAN_ANOMALY": 297.741,
    "EPHEMERIS_TYPE": 0,
    "CLASSIFICATION_TYPE": "U",
    "NORAD_CAT_ID": 61585,
    "ELEMENT_SET_NO": 999,
    "REV_AT_EPOCH": 6210,
    "BSTAR": 0.0015160000000000002,
    "MEAN_MOTION_DOT": 0.00187765,
    "MEAN_MOTION_DDOT": 0.0,
    "TLE_LINE1": "1 61585U 24187M   25314.97939761  .00187765  00000+0  15160-2 0  9991",
    "TLE_LINE2": "2 61585  53.1578 161.5872 0000531  62.3661 297.7410 15.69771840 62106",
    "COMMENT": "Grouped by shell and plane from TLE"
  },
  {
    "OBJECT_NAME": "STARLINK-11360 [DTC]",
    "OBJECT_ID": "24187N",
    "EPOCH": "2025-11-10T20:19:53.982912",
    "MEAN_MOTION": 15.69719602,
    "ECCENTRICITY": 0.0001072,
    "INCLINATION": 53.1585,
    "RA_OF_ASC_NODE": 162.1816,
    "ARG_OF_PERICENTER": 100.5566,
    "MEAN_ANOMALY": 259.5573,
    "EPHEMERIS_TYPE": 0,
    "CLASSIFICATION_TYPE": "U",
    "NORAD_CAT_ID": 61586,
    "ELEMENT_SET_NO": 999,
    "REV_AT_EPOCH": 6213,
    "BSTAR": 1.5589000000000002e-06,
    "MEAN_MOTION_DOT": -4e-06,
    "MEAN_MOTION_DDOT": 0.0,
    "TLE_LINE1": "1 61586U 24187N   25314.84715258 -.00000400  00000+0  15589-5 0  9990",
    "TLE_LINE2": "2 61586  53.1585 162.1816 0001072 100.5566 259.5573 15.69719602 62137",
    "COMMENT": "Grouped by shell and plane from TLE"
  },
  {
    "OBJECT_NAME": "STARLINK-11444 [DTC]",
    "OBJECT_ID": "24249A",
    "EPOCH": "2025-11-10T00:05:48.836544",
    "MEAN_MOTION": 15.70896571,
    "ECCENTRICITY": 0.0003549,
    "INCLINATION": 42.9998,
    "RA_OF_ASC_NODE": 169.4005,
    "ARG_OF_PERICENTER": 246.0077,
    "MEAN_ANOMALY": 114.0419,
    "EPHEMERIS_TYPE": 0,
    "CLASSIFICATION_TYPE": "U",
    "NORAD_CAT_ID": 62409,
    "ELEMENT_SET_NO": 999,
    "REV_AT_EPOCH": 5065,
    "BSTAR": 0.0009770900000000001,
    "MEAN_MOTION_DOT": 0.00127189,
    "MEAN_MOTION_DDOT": 0.0,
    "TLE_LINE1": "1 62409U 24249A   25314.00403746  .00127189  00000+0  97709-3 0  9993",
    "TLE_LINE2": "2 62409  42.9998 169.4005 0003549 246.0077 114.0419 15.70896571 50651",
    "COMMENT": "Grouped by shell and plane from TLE"
  },
  {
    "OBJECT_NAME": "STARLINK-11493 [DTC]",
    "OBJECT_ID": "24249B",
    "EPOCH": "2025-11-11T06:44:39.710688",
    "MEAN_MOTION": 15.71025936,
    "ECCENTRICITY": 0.0002617,
    "INCLINATION": 43.0002,
    "RA_OF_ASC_NODE": 161.778,
    "ARG_OF_PERICENTER": 300.9801,
    "MEAN_ANOMALY": 59.0809,
    "EPHEMERIS_TYPE": 0,
    "CLASSIFICATION_TYPE": "U",
    "NORAD_CAT_ID": 62410,
    "ELEMENT_SET_NO": 999,
    "REV_AT_EPOCH": 5085,
    "BSTAR": 0.0024496,
    "MEAN_MOTION_DOT": 0.00329213,
    "MEAN_MOTION_DDOT": 0.0,
    "TLE_LINE1": "1 62410U 24249B   25315.28101517  .00329213  00000+0  24496-2 0  9991",
    "TLE_LINE2": "2 62410  43.0002 161.7780 0002617 300.9801  59.0809 15.71025936 50859",
    "COMMENT": "Grouped by shell and plane from TLE"
  }
]